{
  "type": "FeatureCollection",
  "features": [
    {
      "type": "Feature",
      "properties": {
        "norad_id": 34815,
        "name": "COSMOS 2251 DEB",
        "group": "cosmos-2251-debris",
        "lat": 19.44174452767325,
        "lon": 45.10122990017572,
        "alt_km": 665.3668818613378,
        "timestamp": "2025-12-18T07:01:54.984757+00:00",
        "meta_object_name": "COSMOS 2251 DEB",
        "meta_object_id": "1993-036ABE",
        "meta_epoch": "2025-12-17T02:41:53.551968",
        "meta_mean_motion": 14.78366117,
        "meta_eccentricity": 0.00588329,
        "meta_inclination": 74.045,
        "meta_ra_of_asc_node": 233.2142,
        "meta_arg_of_pericenter": 301.3829,
        "meta_mean_anomaly": 58.1599,
        "meta_ephemeris_type": 0,
        "meta_classification_type": "U",
        "meta_norad_cat_id": 34815,
        "meta_element_set_no": 999,
        "meta_rev_at_epoch": 88692,
        "meta_bstar": 0.00061090147,
        "meta_mean_motion_dot": 4.544e-05,
        "meta_mean_motion_ddot": 0,
        "tle_line1": "1 34815U 93036ABE 25351.11242537  .00004544  00000+0  61090-3 0  9998",
        "tle_line2": "2 34815  74.0450 233.2142 0058832 301.3829  58.1599 14.78366117886926"
      },
      "geometry": {
        "type": "Point",
        "coordinates": [
          45.10122990017572,
          19.44174452767325
        ]
      }
    },
    {
      "type": "Feature",
      "properties": {
        "norad_id": 34816,
        "name": "COSMOS 2251 DEB",
        "group": "cosmos-2251-debris",
        "lat": -53.90911912351409,
        "lon": -22.577403976934935,
        "alt_km": 830.9232901611731,
        "timestamp": "2025-12-18T07:01:54.984768+00:00",
        "meta_object_name": "COSMOS 2251 DEB",
        "meta_object_id": "1993-036ABF",
        "meta_epoch": "2025-12-17T19:54:35.147808",
        "meta_mean_motion": 13.58338046,
        "meta_eccentricity": 0.03732688,
        "meta_inclination": 73.8866,
        "meta_ra_of_asc_node": 134.8167,
        "meta_arg_of_pericenter": 198.4084,
        "meta_mean_anomaly": 290.8064,
        "meta_ephemeris_type": 0,
        "meta_classification_type": "U",
        "meta_norad_cat_id": 34816,
        "meta_element_set_no": 999,
        "meta_rev_at_epoch": 82852,
        "meta_bstar": 0.0011037715,
        "meta_mean_motion_dot": 1.242e-05,
        "meta_mean_motion_ddot": 0,
        "tle_line1": "1 34816U 93036ABF 25351.82957347  .00001242  00000+0  11038-2 0  9997",
        "tle_line2": "2 34816  73.8866 134.8167 0373268 198.4084 290.8064 13.58338046828520"
      },
      "geometry": {
        "type": "Point",
        "coordinates": [
          -22.577403976934935,
          -53.90911912351409
        ]
      }
    },
    {
      "type": "Feature",
      "properties": {
        "norad_id": 34818,
        "name": "COSMOS 2251 DEB",
        "group": "cosmos-2251-debris",
        "lat": -29.124613709629386,
        "lon": -82.44849848211099,
        "alt_km": 759.1403379227067,
        "timestamp": "2025-12-18T07:01:54.984777+00:00",
        "meta_object_name": "COSMOS 2251 DEB",
        "meta_object_id": "1993-036ABH",
        "meta_epoch": "2025-12-17T19:37:00.471648",
        "meta_mean_motion": 14.36973448,
        "meta_eccentricity": 0.00243712,
        "meta_inclination": 74.0361,
        "meta_ra_of_asc_node": 287.6027,
        "meta_arg_of_pericenter": 1.9597,
        "meta_mean_anomaly": 28.3762,
        "meta_ephemeris_type": 0,
        "meta_classification_type": "U",
        "meta_norad_cat_id": 34818,
        "meta_element_set_no": 999,
        "meta_rev_at_epoch": 87443,
        "meta_bstar": 0.00017444245,
        "meta_mean_motion_dot": 4.92e-06,
        "meta_mean_motion_ddot": 0,
        "tle_line1": "1 34818U 93036ABH 25351.81736657  .00000492  00000+0  17444-3 0  9991",
        "tle_line2": "2 34818  74.0361 287.6027 0024371   1.9597  28.3762 14.36973448874430"
      },
      "geometry": {
        "type": "Point",
        "coordinates": [
          -82.44849848211099,
          -29.124613709629386
        ]
      }
    },
    {
      "type": "Feature",
      "properties": {
        "norad_id": 34819,
        "name": "COSMOS 2251 DEB",
        "group": "cosmos-2251-debris",
        "lat": 62.79061551601665,
        "lon": 165.86501229698783,
        "alt_km": 683.8956343674736,
        "timestamp": "2025-12-18T07:01:54.984788+00:00",
        "meta_object_name": "COSMOS 2251 DEB",
        "meta_object_id": "1993-036ABJ",
        "meta_epoch": "2025-12-17T11:18:28.771776",
        "meta_mean_motion": 14.64038654,
        "meta_eccentricity": 0.00156064,
        "meta_inclination": 74.0167,
        "meta_ra_of_asc_node": 133.563,
        "meta_arg_of_pericenter": 227.8792,
        "meta_mean_anomaly": 190.1943,
        "meta_ephemeris_type": 0,
        "meta_classification_type": "U",
        "meta_norad_cat_id": 34819,
        "meta_element_set_no": 999,
        "meta_rev_at_epoch": 88298,
        "meta_bstar": 0.0011985675,
        "meta_mean_motion_dot": 6.273e-05,
        "meta_mean_motion_ddot": 0,
        "tle_line1": "1 34819U 93036ABJ 25351.47116634  .00006273  00000+0  11986-2 0  9998",
        "tle_line2": "2 34819  74.0167 133.5630 0015606 227.8792 190.1943 14.64038654882981"
      },
      "geometry": {
        "type": "Point",
        "coordinates": [
          165.86501229698783,
          62.79061551601665
        ]
      }
    },
    {
      "type": "Feature",
      "properties": {
        "norad_id": 34823,
        "name": "COSMOS 2251 DEB",
        "group": "cosmos-2251-debris",
        "lat": -60.236972046766375,
        "lon": 61.74367247449828,
        "alt_km": 770.2595093034342,
        "timestamp": "2025-12-18T07:01:54.984798+00:00",
        "meta_object_name": "COSMOS 2251 DEB",
        "meta_object_id": "1993-036ABN",
        "meta_epoch": "2025-12-17T16:29:01.822560",
        "meta_mean_motion": 14.54962902,
        "meta_eccentricity": 0.01543529,
        "meta_inclination": 74.0424,
        "meta_ra_of_asc_node": 92.9148,
        "meta_arg_of_pericenter": 176.4751,
        "meta_mean_anomaly": 183.7542,
        "meta_ephemeris_type": 0,
        "meta_classification_type": "U",
        "meta_norad_cat_id": 34823,
        "meta_element_set_no": 999,
        "meta_rev_at_epoch": 88453,
        "meta_bstar": 0.00051395054,
        "meta_mean_motion_dot": 2.564e-05,
        "meta_mean_motion_ddot": 0,
        "tle_line1": "1 34823U 93036ABN 25351.68682665  .00002564  00000+0  51395-3 0  9996",
        "tle_line2": "2 34823  74.0424  92.9148 0154352 176.4751 183.7542 14.54962902884537"
      },
      "geometry": {
        "type": "Point",
        "coordinates": [
          61.74367247449828,
          -60.236972046766375
        ]
      }
    },
    {
      "type": "Feature",
      "properties": {
        "norad_id": 34845,
        "name": "COSMOS 2251 DEB",
        "group": "cosmos-2251-debris",
        "lat": 71.64171646003194,
        "lon": -162.3279433108596,
        "alt_km": 744.6707514274049,
        "timestamp": "2025-12-18T07:01:54.984809+00:00",
        "meta_object_name": "COSMOS 2251 DEB",
        "meta_object_id": "1993-036ABP",
        "meta_epoch": "2025-12-16T16:27:57.312000",
        "meta_mean_motion": 14.45867207,
        "meta_eccentricity": 0.0022475,
        "meta_inclination": 74.024,
        "meta_ra_of_asc_node": 140.983,
        "meta_arg_of_pericenter": 301.2672,
        "meta_mean_anomaly": 58.6284,
        "meta_ephemeris_type": 0,
        "meta_classification_type": "U",
        "meta_norad_cat_id": 34845,
        "meta_element_set_no": 999,
        "meta_rev_at_epoch": 87523,
        "meta_bstar": 0.00027004577,
        "meta_mean_motion_dot": 9.35e-06,
        "meta_mean_motion_ddot": 0,
        "tle_line1": "1 34845U 93036ABP 25350.68608000  .00000935  00000+0  27005-3 0  9991",
        "tle_line2": "2 34845  74.0240 140.9830 0022475 301.2672  58.6284 14.45867207875231"
      },
      "geometry": {
        "type": "Point",
        "coordinates": [
          -162.3279433108596,
          71.64171646003194
        ]
      }
    },
    {
      "type": "Feature",
      "properties": {
        "norad_id": 34846,
        "name": "COSMOS 2251 DEB",
        "group": "cosmos-2251-debris",
        "lat": 45.110816441936166,
        "lon": -91.9034086114761,
        "alt_km": 730.5721524354822,
        "timestamp": "2025-12-18T07:01:54.984819+00:00",
        "meta_object_name": "COSMOS 2251 DEB",
        "meta_object_id": "1993-036ABQ",
        "meta_epoch": "2025-12-17T12:33:53.522496",
        "meta_mean_motion": 14.47242941,
        "meta_eccentricity": 0.00261844,
        "meta_inclination": 74.0309,
        "meta_ra_of_asc_node": 252.8291,
        "meta_arg_of_pericenter": 318.5861,
        "meta_mean_anomaly": 41.3312,
        "meta_ephemeris_type": 0,
        "meta_classification_type": "U",
        "meta_norad_cat_id": 34846,
        "meta_element_set_no": 999,
        "meta_rev_at_epoch": 87473,
        "meta_bstar": 0.00057781802,
        "meta_mean_motion_dot": 2.094e-05,
        "meta_mean_motion_ddot": 0,
        "tle_line1": "1 34846U 93036ABQ 25351.52353614  .00002094  00000+0  57782-3 0  9997",
        "tle_line2": "2 34846  74.0309 252.8291 0026184 318.5861  41.3312 14.47242941874733"
      },
      "geometry": {
        "type": "Point",
        "coordinates": [
          -91.9034086114761,
          45.110816441936166
        ]
      }
    }
  ]
}